[{"OBJECT_NAME":"STARLINK-34378","OBJECT_ID":"2025-123J","EPOCH":"2026-03-09T17:18:41.304096","MEAN_MOTION":14.9832804,"ECCENTRICITY":0.00031151,"INCLINATION":70.0027,"RA_OF_ASC_NODE":194.3646,"ARG_OF_PERICENTER":267.7403,"MEAN_ANOMALY":92.3399,"EPHEMERIS_TYPE":0,"CLASSIFICATION_TYPE":"U","NORAD_CAT_ID":64299,"ELEMENT_SET_NO":999,"REV_AT_EPOCH":4162,"BSTAR":0.00011103822,"MEAN_MOTION_DOT":1.232e-5,"MEAN_MOTION_DDOT":0},{"OBJECT_NAME":"IRIDIUM 33 DEB","OBJECT_ID":"1997-051PF","EPOCH":"2026-03-08T20:08:48.628608","MEAN_MOTION":15.0410284,"ECCENTRICITY":0.00301759,"INCLINATION":86.2075,"RA_OF_ASC_NODE":10.7469,"ARG_OF_PERICENTER":217.121,"MEAN_ANOMALY":142.7938,"EPHEMERIS_TYPE":0,"CLASSIFICATION_TYPE":"U","NORAD_CAT_ID":35080,"ELEMENT_SET_NO":999,"REV_AT_EPOCH":70973,"BSTAR":0.01054144,"MEAN_MOTION_DOT":0.00150308,"MEAN_MOTION_DDOT":0}]
